start=new Date('2022-05-15T00:00:00.000Z').valueOf();
sats=[{"INCLINATION":"53.2143","FILE":"3445638","DECAY_DATE":null,"MEAN_MOTION_DOT":"-0.00024933","OBJECT_TYPE":"PAYLOAD","PERIOD":"91.528","NORAD_CAT_ID":"52134","EPHEMERIS_TYPE":"0","REF_FRAME":"TEME","TLE_LINE1":"1 52134U 22029AY  22134.91667824 -.00024933  00000-0 -17312-3 0  9995","TLE_LINE2":"2 52134  53.2143 223.3542 0002253  30.3189 220.8155 15.73280829 10180","MEAN_ELEMENT_THEORY":"SGP4","TIME_SYSTEM":"UTC","LAUNCH_DATE":"2022-03-19","REV_AT_EPOCH":"1018","EPOCH":"2022-05-14T22:00:00.999936","MEAN_MOTION":"15.73280829","PERIAPSIS":"348.014","RCS_SIZE":"LARGE","ARG_OF_PERICENTER":"30.3189","CLASSIFICATION_TYPE":"U","SITE":"AFETR","BSTAR":"-0.00017312000000","CENTER_NAME":"EARTH","APOAPSIS":"351.045","ELEMENT_SET_NO":"999","COUNTRY_CODE":"US","MEAN_MOTION_DDOT":"0.0000000000000","OBJECT_ID":"2022-029AY","MEAN_ANOMALY":"220.8155","GP_ID":"203534607","ECCENTRICITY":"0.00022530","SEMIMAJOR_AXIS":"6727.665","OBJECT_NAME":"STARLINK-3721","RA_OF_ASC_NODE":"223.3542"},{"FILE":"3445938","INCLINATION":"53.2143","OBJECT_TYPE":"PAYLOAD","MEAN_MOTION_DOT":"-0.00038805","PERIOD":"91.530","DECAY_DATE":null,"EPHEMERIS_TYPE":"0","NORAD_CAT_ID":"52135","REF_FRAME":"TEME","TLE_LINE1":"1 52135U 22029AZ  22134.91667824 -.00038805  00000-0 -27262-3 0  9994","TIME_SYSTEM":"UTC","TLE_LINE2":"2 52135  53.2143 223.3476 0002290  21.1425 232.3348 15.73257579  1301","MEAN_ELEMENT_THEORY":"SGP4","LAUNCH_DATE":"2022-03-19","REV_AT_EPOCH":"130","MEAN_MOTION":"15.73257579","EPOCH":"2022-05-14T22:00:00.999936","PERIAPSIS":"348.055","RCS_SIZE":"LARGE","ARG_OF_PERICENTER":"21.1425","BSTAR":"-0.00027262000000","CLASSIFICATION_TYPE":"U","SITE":"AFETR","ELEMENT_SET_NO":"999","MEAN_MOTION_DDOT":"0.0000000000000","COUNTRY_CODE":"US","CENTER_NAME":"EARTH","APOAPSIS":"351.137","OBJECT_ID":"2022-029AZ","GP_ID":"203566601","MEAN_ANOMALY":"232.3348","OBJECT_NAME":"STARLINK-3729","ECCENTRICITY":"0.00022900","SEMIMAJOR_AXIS":"6727.731","RA_OF_ASC_NODE":"223.3476"},{"NORAD_CAT_ID":"52136","EPHEMERIS_TYPE":"0","REF_FRAME":"TEME","INCLINATION":"53.2144","FILE":"3445938","OBJECT_TYPE":"PAYLOAD","MEAN_MOTION_DOT":"-0.00067475","PERIOD":"91.527","DECAY_DATE":null,"REV_AT_EPOCH":"130","LAUNCH_DATE":"2022-03-19","MEAN_MOTION":"15.73299063","EPOCH":"2022-05-14T22:00:00.999936","TLE_LINE1":"1 52136U 22029BA  22134.91667824 -.00067475  00000-0 -47808-3 0  9998","TIME_SYSTEM":"UTC","MEAN_ELEMENT_THEORY":"SGP4","TLE_LINE2":"2 52136  53.2144 223.3513 0002302  22.1742 230.1137 15.73299063  1308","BSTAR":"-0.00047808000000","SITE":"AFETR","CLASSIFICATION_TYPE":"U","MEAN_MOTION_DDOT":"0.0000000000000","COUNTRY_CODE":"US","ELEMENT_SET_NO":"999","APOAPSIS":"351.026","CENTER_NAME":"EARTH","RCS_SIZE":"LARGE","PERIAPSIS":"347.929","ARG_OF_PERICENTER":"22.1742","OBJECT_NAME":"STARLINK-3720","SEMIMAJOR_AXIS":"6727.613","ECCENTRICITY":"0.00023020","RA_OF_ASC_NODE":"223.3513","OBJECT_ID":"2022-029BA","GP_ID":"203566168","MEAN_ANOMALY":"230.1137"},{"RCS_SIZE":"LARGE","PERIAPSIS":"347.885","ARG_OF_PERICENTER":"21.7889","SITE":"AFETR","CLASSIFICATION_TYPE":"U","BSTAR":"-0.00027719000000","APOAPSIS":"351.170","CENTER_NAME":"EARTH","COUNTRY_CODE":"US","MEAN_MOTION_DDOT":"0.0000000000000","ELEMENT_SET_NO":"999","OBJECT_ID":"2022-029BB","MEAN_ANOMALY":"232.2084","GP_ID":"203534849","SEMIMAJOR_AXIS":"6727.662","ECCENTRICITY":"0.00024410","OBJECT_NAME":"STARLINK-3733","RA_OF_ASC_NODE":"223.3465","INCLINATION":"53.2143","FILE":"3445639","DECAY_DATE":null,"PERIOD":"91.528","OBJECT_TYPE":"PAYLOAD","MEAN_MOTION_DOT":"-0.00039484","NORAD_CAT_ID":"52137","EPHEMERIS_TYPE":"0","REF_FRAME":"TEME","TLE_LINE1":"1 52137U 22029BB  22134.91667824 -.00039484  00000-0 -27719-3 0  9997","MEAN_ELEMENT_THEORY":"SGP4","TLE_LINE2":"2 52137  53.2143 223.3465 0002441  21.7889 232.2084 15.73281681 10182","TIME_SYSTEM":"UTC","REV_AT_EPOCH":"1018","LAUNCH_DATE":"2022-03-19","EPOCH":"2022-05-14T22:00:00.999936","MEAN_MOTION":"15.73281681"},{"OBJECT_ID":"2022-029BC","MEAN_ANOMALY":"227.8558","GP_ID":"203566075","SEMIMAJOR_AXIS":"6727.627","ECCENTRICITY":"0.00018730","OBJECT_NAME":"STARLINK-3723","RA_OF_ASC_NODE":"223.3503","RCS_SIZE":"LARGE","PERIAPSIS":"348.232","ARG_OF_PERICENTER":"25.0877","SITE":"AFETR","CLASSIFICATION_TYPE":"U","BSTAR":"-0.00075951000000","APOAPSIS":"350.752","CENTER_NAME":"EARTH","MEAN_MOTION_DDOT":"0.0000000000000","COUNTRY_CODE":"US","ELEMENT_SET_NO":"999","TLE_LINE1":"1 52138U 22029BC  22134.91667824 -.00106311  00000-0 -75951-3 0  9993","TLE_LINE2":"2 52138  53.2144 223.3503 0001873  25.0877 227.8558 15.73294042  1304","MEAN_ELEMENT_THEORY":"SGP4","TIME_SYSTEM":"UTC","REV_AT_EPOCH":"130","LAUNCH_DATE":"2022-03-19","EPOCH":"2022-05-14T22:00:00.999936","MEAN_MOTION":"15.73294042","FILE":"3445938","INCLINATION":"53.2144","DECAY_DATE":null,"OBJECT_TYPE":"PAYLOAD","PERIOD":"91.528","MEAN_MOTION_DOT":"-0.00106311","NORAD_CAT_ID":"52138","EPHEMERIS_TYPE":"0","REF_FRAME":"TEME"},{"GP_ID":"203566256","MEAN_ANOMALY":"187.6308","OBJECT_ID":"2022-029BD","RA_OF_ASC_NODE":"224.6933","OBJECT_NAME":"STARLINK-3730","SEMIMAJOR_AXIS":"6794.554","ECCENTRICITY":"0.00012680","ARG_OF_PERICENTER":"64.2178","RCS_SIZE":"LARGE","PERIAPSIS":"415.558","COUNTRY_CODE":"US","MEAN_MOTION_DDOT":"0.0000000000000","ELEMENT_SET_NO":"999","APOAPSIS":"417.281","CENTER_NAME":"EARTH","BSTAR":"-0.00861350000000","SITE":"AFETR","CLASSIFICATION_TYPE":"U","TIME_SYSTEM":"UTC","MEAN_ELEMENT_THEORY":"SGP4","TLE_LINE2":"2 52139  53.2136 224.6933 0001268  64.2178 187.6308 15.50105657  1308","TLE_LINE1":"1 52139U 22029BD  22134.91667824 -.00465003  00000-0 -86135-2 0  9995","MEAN_MOTION":"15.50105657","EPOCH":"2022-05-14T22:00:00.999936","REV_AT_EPOCH":"130","LAUNCH_DATE":"2022-03-19","MEAN_MOTION_DOT":"-0.00465003","OBJECT_TYPE":"PAYLOAD","PERIOD":"92.897","DECAY_DATE":null,"FILE":"3445938","INCLINATION":"53.2136","REF_FRAME":"TEME","EPHEMERIS_TYPE":"0","NORAD_CAT_ID":"52139"},{"OBJECT_NAME":"STARLINK-3682","ECCENTRICITY":"0.00021430","SEMIMAJOR_AXIS":"6727.654","RA_OF_ASC_NODE":"223.3454","OBJECT_ID":"2022-029BE","GP_ID":"203534619","MEAN_ANOMALY":"234.3208","BSTAR":"-0.00044676000000","CLASSIFICATION_TYPE":"U","SITE":"AFETR","ELEMENT_SET_NO":"999","MEAN_MOTION_DDOT":"0.0000000000000","COUNTRY_CODE":"US","CENTER_NAME":"EARTH","APOAPSIS":"350.960","PERIAPSIS":"348.077","RCS_SIZE":"LARGE","ARG_OF_PERICENTER":"20.8939","LAUNCH_DATE":"2022-03-19","REV_AT_EPOCH":"1018","MEAN_MOTION":"15.73284745","EPOCH":"2022-05-14T22:00:00.999936","TLE_LINE1":"1 52140U 22029BE  22134.91667824 -.00063087  00000-0 -44676-3 0  9998","TIME_SYSTEM":"UTC","MEAN_ELEMENT_THEORY":"SGP4","TLE_LINE2":"2 52140  53.2144 223.3454 0002143  20.8939 234.3208 15.73284745 10185","EPHEMERIS_TYPE":"0","NORAD_CAT_ID":"52140","REF_FRAME":"TEME","INCLINATION":"53.2144","FILE":"3445639","MEAN_MOTION_DOT":"-0.00063087","OBJECT_TYPE":"PAYLOAD","PERIOD":"91.528","DECAY_DATE":null},{"OBJECT_ID":"2022-041A","GP_ID":"203566614","MEAN_ANOMALY":"70.2751","OBJECT_NAME":"STARLINK-3810","SEMIMAJOR_AXIS":"6746.485","ECCENTRICITY":"0.00014490","RA_OF_ASC_NODE":"259.9355","RCS_SIZE":"LARGE","PERIAPSIS":"367.372","ARG_OF_PERICENTER":"43.1802","BSTAR":"-0.00730080000000","SITE":"AFETR","CLASSIFICATION_TYPE":"U","COUNTRY_CODE":"US","MEAN_MOTION_DDOT":"0.0000000000000","ELEMENT_SET_NO":"999","APOAPSIS":"369.327","CENTER_NAME":"EARTH","TLE_LINE1":"1 52261U 22041A   22134.91667824 -.00717730  00000-0 -73008-2 0  9997","TIME_SYSTEM":"UTC","MEAN_ELEMENT_THEORY":"SGP4","TLE_LINE2":"2 52261  53.2170 259.9355 0001449  43.1802  70.2751 15.66702129  1305","REV_AT_EPOCH":"130","LAUNCH_DATE":"2022-04-21","MEAN_MOTION":"15.66702129","EPOCH":"2022-05-14T22:00:00.999936","FILE":"3445938","INCLINATION":"53.2170","OBJECT_TYPE":"PAYLOAD","PERIOD":"91.913","MEAN_MOTION_DOT":"-0.00717730","DECAY_DATE":null,"EPHEMERIS_TYPE":"0","NORAD_CAT_ID":"52261","REF_FRAME":"TEME"},{"MEAN_MOTION":"15.66692849","EPOCH":"2022-05-14T22:00:00.999936","REV_AT_EPOCH":"130","LAUNCH_DATE":"2022-04-21","TIME_SYSTEM":"UTC","TLE_LINE2":"2 52262  53.2170 259.9318 0001557  38.6454  73.4802 15.66692849  1306","MEAN_ELEMENT_THEORY":"SGP4","TLE_LINE1":"1 52262U 22041B   22134.91667824 -.00717521  00000-0 -73010-2 0  9999","REF_FRAME":"TEME","NORAD_CAT_ID":"52262","EPHEMERIS_TYPE":"0","OBJECT_TYPE":"PAYLOAD","MEAN_MOTION_DOT":"-0.00717521","PERIOD":"91.913","DECAY_DATE":null,"FILE":"3445938","INCLINATION":"53.2170","RA_OF_ASC_NODE":"259.9318","OBJECT_NAME":"STARLINK-3761","SEMIMAJOR_AXIS":"6746.512","ECCENTRICITY":"0.00015570","GP_ID":"203566181","MEAN_ANOMALY":"73.4802","OBJECT_ID":"2022-041B","MEAN_MOTION_DDOT":"0.0000000000000","COUNTRY_CODE":"US","ELEMENT_SET_NO":"999","APOAPSIS":"369.427","CENTER_NAME":"EARTH","BSTAR":"-0.00730100000000","SITE":"AFETR","CLASSIFICATION_TYPE":"U","ARG_OF_PERICENTER":"38.6454","RCS_SIZE":"LARGE","PERIAPSIS":"367.326"},{"APOAPSIS":"369.345","CENTER_NAME":"EARTH","MEAN_MOTION_DDOT":"0.0000000000000","COUNTRY_CODE":"US","ELEMENT_SET_NO":"999","SITE":"AFETR","CLASSIFICATION_TYPE":"U","BSTAR":"-0.00730120000000","ARG_OF_PERICENTER":"42.0076","RCS_SIZE":"LARGE","PERIAPSIS":"367.382","RA_OF_ASC_NODE":"259.9324","SEMIMAJOR_AXIS":"6746.498","ECCENTRICITY":"0.00014550","OBJECT_NAME":"STARLINK-3786","MEAN_ANOMALY":"70.7830","GP_ID":"203566676","OBJECT_ID":"2022-041C","REF_FRAME":"TEME","NORAD_CAT_ID":"52263","EPHEMERIS_TYPE":"0","DECAY_DATE":null,"PERIOD":"91.913","OBJECT_TYPE":"PAYLOAD","MEAN_MOTION_DOT":"-0.00717641","FILE":"3445938","INCLINATION":"53.2170","EPOCH":"2022-05-14T22:00:00.999936","MEAN_MOTION":"15.66697446","REV_AT_EPOCH":"130","LAUNCH_DATE":"2022-04-21","MEAN_ELEMENT_THEORY":"SGP4","TLE_LINE2":"2 52263  53.2170 259.9324 0001455  42.0076  70.7830 15.66697446  1309","TIME_SYSTEM":"UTC","TLE_LINE1":"1 52263U 22041C   22134.91667824 -.00717641  00000-0 -73012-2 0  9995"}];
